[{"OBJECT_NAME":"STARLINK-2017","OBJECT_ID":"2021-005C","EPOCH":"2026-03-09T23:08:49.138368","MEAN_MOTION":15.30176805,"ECCENTRICITY":0.00013958,"INCLINATION":53.1609,"RA_OF_ASC_NODE":12.3908,"ARG_OF_PERICENTER":86.6287,"MEAN_ANOMALY":273.4873,"EPHEMERIS_TYPE":0,"CLASSIFICATION_TYPE":"U","NORAD_CAT_ID":47351,"ELEMENT_SET_NO":999,"REV_AT_EPOCH":28376,"BSTAR":-0.00036741012,"MEAN_MOTION_DOT":-0.00011217,"MEAN_MOTION_DDOT":0},{"OBJECT_NAME":"CZ-6A DEB","OBJECT_ID":"2022-151NB","EPOCH":"2026-03-09T18:26:17.609568","MEAN_MOTION":15.22372787,"ECCENTRICITY":0.00267955,"INCLINATION":98.6489,"RA_OF_ASC_NODE":154.0342,"ARG_OF_PERICENTER":180.4296,"MEAN_ANOMALY":179.6918,"EPHEMERIS_TYPE":0,"CLASSIFICATION_TYPE":"U","NORAD_CAT_ID":54601,"ELEMENT_SET_NO":999,"REV_AT_EPOCH":17694,"BSTAR":0.011449911,"MEAN_MOTION_DOT":0.00276508,"MEAN_MOTION_DDOT":0}]
